PINCODE,CITY,STATE
110064,New Delhi,DELHI
110055,New Delhi,DELHI
110001,New Delhi,DELHI
110011,New Delhi,DELHI
110004,New Delhi,DELHI
110069,New Delhi,DELHI
110036,Delhi,DELHI
110084,Delhi,DELHI
110039,Delhi,DELHI
110054,Delhi,DELHI
110081,Delhi,DELHI
110082,Delhi,DELHI
110083,Delhi,DELHI
110007,Delhi,DELHI
110033,Delhi,DELHI
110040,Delhi,DELHI
110035,Delhi,DELHI
110085,Delhi,DELHI
110042,Delhi,DELHI
110034,Delhi,DELHI
110056,Delhi,DELHI
110086,Delhi,DELHI
110006,Delhi,DELHI
110009,Delhi,DELHI
110088,Delhi,DELHI
110052,Delhi,DELHI
110049,New Delhi,DELHI
110024,New Delhi,DELHI
110013,New Delhi,DELHI
110017,New Delhi,DELHI
110065,New Delhi,DELHI
110048,New Delhi,DELHI
110020,New Delhi,DELHI
110044,New Delhi,DELHI
110076,New Delhi,DELHI
110062,New Delhi,DELHI
110025,New Delhi,DELHI
110014,New Delhi,DELHI
110003,New Delhi,DELHI
110019,New Delhi,DELHI
110077,New Delhi,DELHI
110046,New Delhi,DELHI
110073,New Delhi,DELHI
110018,New Delhi,DELHI
110026,New Delhi,DELHI
110058,New Delhi,DELHI
110071,New Delhi,DELHI
110059,New Delhi,DELHI
110075,New Delhi,DELHI
110015,New Delhi,DELHI
110027,New Delhi,DELHI
110087,New Delhi,DELHI
110063,New Delhi,DELHI
110043,New Delhi,DELHI
110041,New Delhi,DELHI
110078,New Delhi,DELHI
110028,New Delhi,DELHI
110045,New Delhi,DELHI
110043,Delhi,DELHI
110100,Delhi,DELHI
110029,New Delhi,DELHI
110080,South Delhi,DELHI
110084,North,DELHI
110054,North,DELHI
110003,Delhi,DELHI
110075,Delhi,DELHI
110098,New Delhi,DELHI
110015,Delhi,DELHI
110073,Delhi,DELHI
110084,New Delhi,DELHI
110050,South Delhi,DELHI
110002,New Delhi Central,DELHI
110023,Delhi,DELHI
110002,New Delhi,DELHI
110085,North West Delhi,DELHI
110090,East Delhi,DELHI
110053,East Delhi,DELHI
110074,South West Delhi,DELHI
110071,South West Delhi,DELHI
110005,New Delhi,DELHI
110008,New Delhi,DELHI
110012,New Delhi,DELHI
110060,New Delhi,DELHI
110094,Delhi North East,DELHI
110090,Delhi,DELHI
131021,Sonipat,HARYANA
131304,Sonipat,HARYANA
121010,Faridabad,HARYANA
131001,Sonipat,HARYANA
131301,Gohana,HARYANA
131039,Sonipat,HARYANA
131101,Ganaur,HARYANA
131028,Sonipat,HARYANA
131305,Gohana,HARYANA
131402,Kharkhoda,HARYANA
131029,Sonipat,HARYANA
124001,Rohtak,HARYANA
124141,Rohtak,HARYANA
124010,Rohtak,HARYANA
124001,Rohak,HARYANA
133008,Ambala,HARYANA
131030,Kundli,HARYANA
122098,GURGAON,HARYANA
122012,GURGAON,HARYANA
136027,Kaithal,HARYANA
124146,Jhajjar,HARYANA
124303,Rohtak,HARYANA
124505,Bahadurgarh,HARYANA
124105,Jhajjar,HARYANA
124508,Bahadurgarh,HARYANA
124504,Bahadurgarh,HARYANA
124404,Bahadurgarh,HARYANA
124507,Bahadurgarh,HARYANA
124506,Bahadurgarh,HARYANA
124501,Bahadurgarh,HARYANA
124411,Rohtak,HARYANA
124103,Jhajjar,HARYANA
124021,Rohtak,HARYANA
124142,Jhajjar,HARYANA
124201,Jhajjar,HARYANA
124401,Rohtak,HARYANA
124109,Jhajjar,HARYANA
124107,Jhajjar,HARYANA
124202,Jhajjar,HARYANA
124102,Jhajjar,HARYANA
124412,Rohtak,HARYANA
124113,Rohtak,HARYANA
124406,Rohtak,HARYANA
124514,Mehem,HARYANA
124108,Jhajjar,HARYANA
124111,Mehem,HARYANA
124106,Jhajjar,HARYANA
124112,Mehem,HARYANA
124022,Mehem,HARYANA
124104,Jhajjar,HARYANA
124513,Mehem,HARYANA
125033,Hisar,HARYANA
121012,Faridabad,HARYANA
121013,Faridabad,HARYANA
122052,Manesar,HARYANA
133207,Barara,HARYANA
135003,Jagadhri,HARYANA
134116,Panchkula,HARYANA
135001,Yamuna Nagar,HARYANA
135004,Yamuna Nagar,HARYANA
123401,Gurgaon,HARYANA
122001,Gurgaon,HARYANA
125033,Hansi,HARYANA
132001,Karnal,HARYANA
136135,shahabad,HARYANA
125007,Hisar,HARYANA
136118,Thanesar,HARYANA
134005,Ambala city,HARYANA
133010,Ambala,HARYANA
127311,Bhiwani,HARYANA
127312,Bhiwani,HARYANA
121015,Faridabad,HARYANA
122107,Nuh,HARYANA
123031,Mahendragarh,HARYANA
132140,Panipat,HARYANA
125051,Fatehabad,HARYANA
125056,Sirsa,HARYANA
121014,Faridabad,HARYANA
134105,Panchkula,HARYANA
134008,Ambala,HARYANA
134003,Ambala,HARYANA
127021,Bhiwani,HARYANA
121001,Faridabad,HARYANA
122001,Sadar Bazar,HARYANA
123001,Civil Line,HARYANA
125001,Hisar,HARYANA
125055,Sirsa,HARYANA
132103,Panipat,HARYANA
126102,Jind,HARYANA
136118,Tthanesar,HARYANA
132104,Panipat,HARYANA
132037,Karnal,HARYANA
127308,Bhiwani,HARYANA
127309,Bhiwani,HARYANA
136119,Thanesar,HARYANA
136156,Thanesar,HARYANA
125042,Hisar,HARYANA
125060,Sirsa,HARYANA
125133,Jakhal Mandi,HARYANA
131302,Gohana,HARYANA
123411,Dahina,HARYANA
123401,Rewari,HARYANA
121102,Palwal,HARYANA
136132,Ladwa,HARYANA
133004,Ambala,HARYANA
133201,Ambala,HARYANA
123501,Bawal,HARYANA
127309,Charkhi Dadri,HARYANA
127042,Charkhi Dadri,HARYANA
127026,Charkhi Dadri,HARYANA
124506,Jhajjar,HARYANA
125005,Hisar,HARYANA
134007,Ambala,HARYANA
132107,Panipat,HARYANA
132114,Gharunda,HARYANA
125120,Tohana,HARYANA
127201,Loharu,HARYANA
123106,Rewari,HARYANA
126113,Jind,HARYANA
123302,Rewari,HARYANA
122508,Punhana,HARYANA
122504,Haillymandi,HARYANA
123024,Satnali,HARYANA
122103,Sohna,HARYANA
122105,Tauru,HARYANA
121004,Ballabgarh,HARYANA
133201,Barara,HARYANA
131403,Sonipat,HARYANA
131027,Sonipat,HARYANA
122505,Garhi Harsaru,HARYANA
123021,Mandi Ateli,HARYANA
123023,Narnaul,HARYANA
132108,Panipat,HARYANA
133103,Jagadhri,HARYANA
133005,Ambala,HARYANA
121105,Palwal,HARYANA
121003,Faridabad,HARYANA
124514,Rohtak,HARYANA
134008,Ambala City,HARYANA
134118,Ambala City,HARYANA
135003,Yamuna Nagar,HARYANA
133001,Ambala,HARYANA
133205,Barara,HARYANA
133101,Ambala,HARYANA
133202,Ambala,HARYANA
133006,Ambala,HARYANA
133102,Ambala,HARYANA
133203,Barara,HARYANA
133104,Ambala,HARYANA
135001,Jagadhri,HARYANA
135106,Yamuna Nagar,HARYANA
135102,Jagadhri,HARYANA
135101,Chhachhrauli,HARYANA
135103,Yamuna Nagar,HARYANA
135002,Jagadhri,HARYANA
135021,Yamuna Nagar,HARYANA
135133,Jagadhri,HARYANA
133204,Yamuna Nagar,HARYANA
133206,Yamuna Nagar,HARYANA
133301,Kalka,HARYANA
134118,Ambala City Ho,HARYANA
134107,Panchkula,HARYANA
134104,Kalka,HARYANA
134103,Panchkula,HARYANA
134201,Ambala City,HARYANA
133302,Kalka,HARYANA
134205,Panchkula,HARYANA
134203,Ambala City,HARYANA
134108,Panchkula,HARYANA
134112,Panchkula,HARYANA
134113,Panchkula,HARYANA
134109,Ambala City,HARYANA
134102,Kalka,HARYANA
134101,Kalka,HARYANA
134204,Panchkula,HARYANA
134202,Ambala City,HARYANA
134114,Panchkula,HARYANA
134117,Panchkula,HARYANA
127030,Bhiwani,HARYANA
127310,Charkhi Dadri,HARYANA
127029,Bhiwani,HARYANA
127114,Bhiwani,HARYANA
127041,Mundhal,HARYANA
127043,Bhiwani,HARYANA
127046,Siwani,HARYANA
127031,Bhiwani,HARYANA
127040,Bhiwani,HARYANA
127307,Achina,HARYANA
127025,Baund,HARYANA
127308,Badhara,HARYANA
127032,Bawani Khera,HARYANA
127028,Siwani,HARYANA
127111,Bhiwani,HARYANA
127022,Ch-dadri,HARYANA
127027,Bhiwani,HARYANA
127306,Dadri,HARYANA
127045,Siwani,HARYANA
127035,Bawani Khera,HARYANA
121103,Hathin,HARYANA
121106,Hodal,HARYANA
121107,Hodal,HARYANA
121005,Faridabad,HARYANA
121002,Faridabad,HARYANA
121008,Faridabad,HARYANA
121009,Faridabad,HARYANA
121007,Faridabad,HARYANA
121006,Ballabgarh,HARYANA
121101,Ballabgarh,HARYANA
122502,Khalilpur,HARYANA
122001,Mini Sectt.,HARYANA
122108,Nagina,HARYANA
122004,Narsinghpur,HARYANA
122414,Nanukalan,HARYANA
122001,New Colony,HARYANA
122051,Nsg Camp Manesar,HARYANA
122015,Palam Road,HARYANA
122017,Palam Vihar,HARYANA
122503,Pataudi,HARYANA
122006,Railway Road,HARYANA
122001,Sector-17,HARYANA
122003,Sector -45,HARYANA
122001,Shivaji Nagar,HARYANA
122001,Urban Estate,HARYANA
122009,Galleria Dlf-iv,HARYANA
123034,Bawania,HARYANA
123412,Dharan,HARYANA
123106,Dharuhera,HARYANA
123301,Guriani,HARYANA
123110,Dharuhera,HARYANA
123027,Kanina,HARYANA
123103,Khol,HARYANA
123101,Khori,HARYANA
123302,Kosli,HARYANA
123102,Kund,HARYANA
123001,Narnaul,HARYANA
123029,Mohindergarh,HARYANA
123303,Nahar,HARYANA
122005,Air Force,HARYANA
122001,Arjun Nagar,HARYANA
123028,Nangal Sirohi,HARYANA
123401,New Anaz Mandi Rewari,HARYANA
123035,Palhawas,HARYANA
122101,Badshahpur,HARYANA
122413,Bhorakalan,HARYANA
122001,Basai Road,HARYANA
122102,Bhondsi,HARYANA
122002,Dlf Qe,HARYANA
122506,Farrukh Nagar,HARYANA
122104,Ferozepur Jhirka,HARYANA
122001,Gurgaon Kty.,HARYANA
122016,Industrial Complex Dundahera,HARYANA
122007,Industrial Estate,HARYANA
122008,Dlf Ph-ii,HARYANA
122010,Dlf Ph-iii,HARYANA
125006,Hisar,HARYANA
125133,Tohana,HARYANA
125201,Sirsa,HARYANA
125038,Hansi,HARYANA
125052,Hisar,HARYANA
125104,M.dabwali,HARYANA
125050,Fatehabad,HARYANA
125037,Hisar,HARYANA
125039,Hansi,HARYANA
125077,Sirsa,HARYANA
125112,Hisar,HARYANA
125051,Tohana,HARYANA
125076,Sirsa,HARYANA
125044,Hisar,HARYANA
125049,Hansi,HARYANA
125075,Sirsa,HARYANA
125113,Hisar,HARYANA
125101,Sirsa,HARYANA
125110,Sirsa,HARYANA
125104,Dabwali,HARYANA
125106,Tohana,HARYANA
125058,Sirsa,HARYANA
125102,Sirsa,HARYANA
125047,Hisar,HARYANA
125011,Hisar,HARYANA
125048,Fatehabad,HARYANA
125054,Sirsa,HARYANA
125078,Sirsa,HARYANA
125121,Hisar,HARYANA
125042,Hansi,HARYANA
125053,Hisar,HARYANA
125111,Tohana,HARYANA
125103,Sirsa,HARYANA
125004,Hisar,HARYANA
132022,Kunjpura,HARYANA
132023,Karnal,HARYANA
132037,Nilokheri,HARYANA
132157,Nilokheri,HARYANA
132117,Nilokheri,HARYANA
132024,Karnal,HARYANA
126110,Jind,HARYANA
126101,Jind,HARYANA
126116,Narwana,HARYANA
126113,Narwana,HARYANA
126112,Safidon,HARYANA
126114,Safidon,HARYANA
126115,Narwana,HARYANA
132046,Assandh,HARYANA
132116,Nilokheri,HARYANA
132122,Panipat,HARYANA
132115,Panipat,HARYANA
132113,Panipat,HARYANA
132145,Panipat,HARYANA
132106,Panipat,HARYANA
132105,Panipat,HARYANA
132102,Panipat,HARYANA
132101,Panipat,HARYANA
126125,Jind,HARYANA
126111,Jind,HARYANA
126152,Jind,HARYANA
132039,Assandh,HARYANA
132040,Assandh,HARYANA
132054,Indri,HARYANA
132041,Indri,HARYANA
132036,Indri,HARYANA
136038,Thanesar,HARYANA
136156,Babain,HARYANA
136034,Guhla,HARYANA
136020,Pundri,HARYANA
136042,Pundri,HARYANA
136035,Guhla,HARYANA
136030,Pehowa,HARYANA
136129,Pehowa,HARYANA
136130,Pehowa,HARYANA
136021,Pundri,HARYANA
136117,Kaithal,HARYANA
136043,Pundri,HARYANA
136128,Pehowa,HARYANA
136131,Thanesar,HARYANA
136026,Pundri,HARYANA
136044,Kaithal,HARYANA
136033,Kaithal,HARYANA
136135,Shahabad,HARYANA
136136,Pehowa,HARYANA
133204,Ambala,HARYANA
133204,Chhachhrauli,HARYANA
133206,Chhachhrauli,HARYANA
133206,Ambala,HARYANA
134118,Ambala,HARYANA
134118,Panchkula,HARYANA
134203,Panchkula,HARYANA
134109,Panchkula,HARYANA
134102,Panchkula,HARYANA
134202,Ambala,HARYANA
133205,Ambala,HARYANA
134201,Naraingarh,HARYANA
134201,Ambala,HARYANA
134203,Naraingarh,HARYANA
127026,Dadri,HARYANA
127306,Charkhi Dadri,HARYANA
127311,Biwani,HARYANA
127307,Dadri,HARYANA
127025,Dadri,HARYANA
127310,Dadri,HARYANA
127035,Bhiwani,HARYANA
127030,Biwani,HARYANA
127022,Dadari,HARYANA
127022,Dadri,HARYANA
127308,Dadri,HARYANA
127312,BHIWANI,HARYANA
127201,Loharu ,HARYANA
127309,Dadri,HARYANA
127041,Bhiwani,HARYANA
127040,Tosham,HARYANA
127032,Bhiwani,HARYANA
127032,Bawanikhera,HARYANA
121105,Hodal,HARYANA
123001,Madhana Kalan,HARYANA
123412,Tankri,HARYANA
123302,Jhal,HARYANA
123029,Jhook,HARYANA
123028,Sehma,HARYANA
123035,Rewari,HARYANA
123035,Karawara,HARYANA
123035,Guraora,HARYANA
123035,Kannaura,HARYANA
123401,B B Ashram,HARYANA
123401,Bikaner,HARYANA
123401,Bithwana,HARYANA
123401,Boria Kamalpur,HARYANA
123401,Budhpur,HARYANA
123401,Dehlawas Gulabpur,HARYANA
123401,Garhi Bolni,HARYANA
123401,Gokalgarh,HARYANA
123401,Jatusana Rs,HARYANA
123401,Khandora,HARYANA
123401,Karnawas,HARYANA
123401,Majra Gurdas,HARYANA
123401,Majra Sheoraj  majra Sheoraj,HARYANA
123401,Mastapur,HARYANA
123401,Mohanpur,HARYANA
123401,Musepur,HARYANA
123401,Nangal Pathani,HARYANA
123401,Nangli Godha,HARYANA
123401,Rohrai,HARYANA
123401,Saharanwas,HARYANA
123401,Sangwari,HARYANA
123401,Sulkha,HARYANA
123029,Kurawata,HARYANA
123029,Khatod,HARYANA
123029,Khudana,HARYANA
123029,Lawan,HARYANA
123029,Mandola,HARYANA
123029,Nimbi,HARYANA
123029,Pali,HARYANA
123029,Palri Panihara,HARYANA
123303,Bisowa,HARYANA
123303,Jharoda,HARYANA
123303,Karoli,HARYANA
123303,Bawwa,HARYANA
123303,Lilodh,HARYANA
123303,Kohrar,HARYANA
123303,Lookhi,HARYANA
123303,Jhoiri,HARYANA
123303,Naigawan,HARYANA
123303,Nehrugarh,HARYANA
123023,Budhwa,HARYANA
123023,Dholera,HARYANA
123023,Thanwas,HARYANA
123023,Niamatpur,HARYANA
123023,Bayal,HARYANA
123023,Nangal Dargu,HARYANA
123023,Golwa,HARYANA
123023,Sareli,HARYANA
123023,Bhaungerka,HARYANA
123023,Akberpur,HARYANA
123023,Sirohi Behali,HARYANA
123028,Bairawas,HARYANA
123028,Daroli Ahir,HARYANA
123028,Kothal Khurd,HARYANA
123028,Nihalawas,HARYANA
123024,Dalanwas,HARYANA
123024,Digrota,HARYANA
123024,Barda,HARYANA
123024,Nawan,HARYANA
123024,Madhogarh,HARYANA
123024,Nangalmala,HARYANA
123024,Shyampura,HARYANA
123024,Sureti Kalan,HARYANA
123024,Jarwa,HARYANA
123001,Azamabad Mukhota,HARYANA
123001,Barkoda,HARYANA
123001,Bashirpur,HARYANA
123001,Bhushan Kalan,HARYANA
123001,Chillro,HARYANA
123001,Dhanota,HARYANA
123001,Dharson,HARYANA
123001,Dochana,HARYANA
123001,Dhor Kalan,HARYANA
123001,Hamidpur,HARYANA
123001,Hudina,HARYANA
123001,Kamania,HARYANA
123001,Karota,HARYANA
123001,Kanwi,HARYANA
123001,Koriawas,HARYANA
123001,Krishan Nagar,HARYANA
123001,Kultazpur,HARYANA
123001,Mandi,HARYANA
123001,Nagal Katha,HARYANA
123001,Neerpur,HARYANA
123001,Nizampur R.s.,HARYANA
123501,Baghthala,HARYANA
123501,Banipur,HARYANA
123501,Gujar Majra,HARYANA
123501,Naichana,HARYANA
123501,Nangal,HARYANA
123501,Nangal Teju,HARYANA
123501,Pranpura,HARYANA
123501,Suthana,HARYANA
123501,Jaisinghpur Khera,HARYANA
123501,Jhabuwa,HARYANA
123034,Bhojawas,HARYANA
123034,Mahendergarh,HARYANA
123034,Dewas,HARYANA
123034,Dhana,HARYANA
123034,Jhagroli,HARYANA
123034,Pathera,HARYANA
123034,Sundrah,HARYANA
123411,Rewari,HARYANA
123411,Buroli,HARYANA
123411,Dakhora,HARYANA
123411,Daroli,HARYANA
123411,Gothera,HARYANA
123411,Kanwali,HARYANA
123411,Lisan,HARYANA
123411,Mundi,HARYANA
123411,Motla Kalan,HARYANA
123411,Nimoth,HARYANA
123411,Rampuri,HARYANA
123411,Zainabad,HARYANA
123412,Rewari,HARYANA
123412,Rajgarh,HARYANA
123106,Bhatsana,HARYANA
123106,Dunderwas,HARYANA
123106,Masani,HARYANA
123106,Nand Rampurbas,HARYANA
123106,Raliawas,HARYANA
123106,Maheshwari,HARYANA
123106,Kharkhara,HARYANA
123301,Jakhala,HARYANA
123301,Rattanthal,HARYANA
123027,Baghot,HARYANA
123027,Bharaf,HARYANA
123027,Chitrauli,HARYANA
123027,Dhanaunda,HARYANA
123027,Gurha,HARYANA
123027,Kakrola,HARYANA
123027,Kanina Mandi,HARYANA
123027,Kheri,HARYANA
123027,Kotia,HARYANA
123027,Nautana,HARYANA
123027,Pota,HARYANA
123027,Rambas,HARYANA
123027,Rasoolpur,HARYANA
123027,Sehlong,HARYANA
123027,Sihore,HARYANA
123027,Siana,HARYANA
123103,Rewari,HARYANA
123103,Dhawana,HARYANA
123103,Khaleta,HARYANA
123103,Mandola,HARYANA
123103,Mayan,HARYANA
123101,Basbatori,HARYANA
123101,Bhotwas Ahir,HARYANA
123101,Rewari,HARYANA
123101,Punsika,HARYANA
123101,Tint,HARYANA
123101,Mamaria Ahir,HARYANA
123302,Bhakli,HARYANA
123302,Bhrthala,HARYANA
123302,Gugodh,HARYANA
123302,Juddi,HARYANA
123302,Karnawas,HARYANA
123302,Kosli R S,HARYANA
123302,Lula Ahir,HARYANA
123302,Sadat Nagar,HARYANA
123302,Shayam Nagar,HARYANA
123302,Surethi,HARYANA
123302,Tumna,HARYANA
123102,Ahrod,HARYANA
123102,Basduda,HARYANA
123102,Chita Dungra,HARYANA
123102,Gothra,HARYANA
123102,Kolana,HARYANA
123102,Nangal Jamalpur,HARYANA
123102,Pali,HARYANA
123021,Narnaul,HARYANA
123021,Behali,HARYANA
123021,Bewal,HARYANA
123021,Dongra Ahir,HARYANA
123021,Dulat Jat,HARYANA
123021,Ganiar,HARYANA
123021,Garhi,HARYANA
123021,Gokalpur,HARYANA
123021,Gujarwas,HARYANA
123021,Kanti,HARYANA
123021,Kanti Kheri,HARYANA
123021,Rattan Kalan,HARYANA
123021,Tajpur,HARYANA
123029,Akoda,HARYANA
123029,Basai,HARYANA
123029,Bawana,HARYANA
123029,Buddin,HARYANA
123029,Beri,HARYANA
123029,C R Mgrh,HARYANA
123029,Dhadhot,HARYANA
123029,Dulot Ahir,HARYANA
123029,Dulana,HARYANA
125053,Fatehabad,HARYANA
125111,Fatehabad,HARYANA
125051,Rattia,HARYANA
125104,Mandi Dabwali,HARYANA
125077,Odhan,HARYANA
125076,Rania,HARYANA
125102,Hisar,HARYANA
125201,Kalanwali,HARYANA
125201,Kaanwali,HARYANA
125201,Kalan Wali,HARYANA
125078,Baragudha,HARYANA
132116,Karnal,HARYANA
132036,Jundla,HARYANA
126116,Jind,HARYANA
132023,S.s. Kunjpura,HARYANA
132023,Ss Kunjpura,HARYANA
132037,Madhuban,HARYANA
132157,Nigdhu,HARYANA
132024,Nissing,HARYANA
132041,Karnal,HARYANA
132037,Karnal'karnal,HARYANA
132157,Karnal,HARYANA
132114,Garunda,HARYANA
132114,Guarunda,HARYANA
132114,Gharudna,HARYANA
132041,Indri],HARYANA
132113,Panipat  panipat,HARYANA
126101,Jind  jind,HARYANA
126113,Safidon,HARYANA
126112,Jind,HARYANA
126115,Narwnaa,HARYANA
136135,Shahbad,HARYANA
136130,Shahbad,HARYANA
136135,Shahbad\,HARYANA
136128,Pehwoa,HARYANA
136044,Rajaund,HARYANA
136136,Shahbad,HARYANA
136119,Thanesa,HARYANA
136043,Kaithal,HARYANA
136044,Kaithalkaithal,HARYANA
136020,Kaithal,HARYANA
136117,Kalayat,HARYANA
124501,Rohtak,HARYANA
124111,Rohtak,HARYANA
124146,Jhamri,HARYANA
124146,Jhanswakalan,HARYANA
124106,Jharli,HARYANA
124103,Jondhi,HARYANA
124021,Rothak,HARYANA
124109,Jhajar,HARYANA
124508,Bahaudrgarh,HARYANA
124404,Rohtak,HARYANA
124103,Jahjjar,HARYANA
124103,Jhajajr,HARYANA
124105,Bahadurgarh,HARYANA
124109,Jhajjr,HARYANA
124022,Rohtak,HARYANA
124508,Bahadurarh,HARYANA
124103,Jhajjr,HARYANA
135103,Chhachhrauli,HARYANA
135002,Ambala,HARYANA
135103,Ambala,HARYANA
135003,Ambala,HARYANA
135003,Chhachhrauli,HARYANA
133101,Barara,HARYANA
133202,Barara,HARYANA
133102,Barara,HARYANA
133203,Ambala,HARYANA
133104,Barara,HARYANA
135004,Ambala,HARYANA
135004,Yamunanagar,HARYANA
135004,Jagadhri,HARYANA
135106,Ambala,HARYANA
135102,Ambala,HARYANA
135101,Ambala,HARYANA
135021,Ambala,HARYANA
133103,Ambala,HARYANA
135133,Ambala,HARYANA
135133,Radaur,HARYANA
